NORAD_CAT_ID,OBJECT_NAME,OBJECT_TYPE,EPOCH,MEAN_MOTION,ECCENTRICITY,INCLINATION,RA_OF_ASC_NODE,ARG_OF_PERICENTER,MEAN_ANOMALY,BSTAR,MEAN_MOTION_DOT,MEAN_MOTION_DDOT,TLE_LINE0,TLE_LINE1,TLE_LINE2,SEMIMAJOR_AXIS,PERIOD,APOGEE,PERIGEE,DECAYED
52697.0,STARLINK-4018,PAYLOAD,2022-09-13 22:00:00,15.08813092,0.0001786999999999,53.2171,102.8102,49.893,327.1356,0.00038989,5.918e-05,0.0,0 STARLINK-4018,1 52697U 22053AT  22256.91667824  .00005918  00000-0  38989-3 0  9994,2 52697  53.2171 102.8102 0001787  49.8930 327.1356 15.08813092  1308,6917.9630000000025,95.439,541.064,538.591,0.0
52697.0,STARLINK-4018,PAYLOAD,2022-09-14 06:00:00,15.08815166,0.0001778,53.2174,101.316,47.1135,341.4757,-0.0001676999999999,-2.954e-05,0.0,0 STARLINK-4018,1 52697U 22053AT  22257.25001157 -.00002954  00000-0 -16770-3 0  9996,2 52697  53.2174 101.3160 0001778  47.1135 341.4757 15.08815166 18583,6917.956,95.439,541.0509999999998,538.591,0.0
52697.0,STARLINK-4018,PAYLOAD,2022-09-14 14:00:01,15.08828786,0.0001641,53.2177,99.8157,55.31399999999999,344.8513,0.0013772,0.00021691,0.0,0 STARLINK-4018,1 52697U 22053AT  22257.58334491  .00021691  00000-0  13772-2 0  9997,2 52697  53.2177  99.8157 0001641  55.3140 344.8513 15.08828786  1300,6917.915,95.438,540.915,538.644,0.0
52697.0,STARLINK-4018,PAYLOAD,2022-09-14 22:00:00,15.08828798,0.0001825,53.2178,98.321,49.2374,2.5218,0.0014222,0.00022412,0.0,0 STARLINK-4018,1 52697U 22053AT  22257.91667824  .00022412  00000-0  14222-2 0  9996,2 52697  53.2178  98.3210 0001825  49.2374   2.5218 15.08828798 18682,6917.915,95.438,541.0419999999998,538.5169999999998,0.0
52697.0,STARLINK-4018,PAYLOAD,2022-09-15 14:00:01,15.08830466,0.0001564999999999,53.2182,95.3267,52.9262,22.0136,0.00098087,0.00015353,0.0,0 STARLINK-4018,1 52697U 22053AT  22258.58334491  .00015353  00000-0  98087-3 0  9999,2 52697  53.2182  95.3267 0001565  52.9262  22.0136 15.08830466  1306,6917.91,95.438,540.857,538.692,0.0
52697.0,STARLINK-4018,PAYLOAD,2022-09-15 20:01:43,15.08834006,0.000164,53.2186,94.2001,53.7415,306.3728,1.8277e-05,3e-08,0.0,0 STARLINK-4018,1 52697U 22053AT  22258.83453515  .00000003  00000-0  18277-4 0  9996,2 52697  53.2186  94.2001 0001640  53.7415 306.3728 15.08834006 19237,6917.899,95.438,540.898,538.629,0.0
52697.0,STARLINK-4018,PAYLOAD,2022-09-16 13:30:58,15.08835934,0.000162,53.2183,90.9284,49.2782,310.835,8.0682e-05,9.96e-06,0.0,0 STARLINK-4018,1 52697U 22053AT  22259.56317507  .00000996  00000-0  80682-4 0  9997,2 52697  53.2183  90.9284 0001620  49.2782 310.8350 15.08835934 19349,6917.893,95.438,540.879,538.637,0.0
52697.0,STARLINK-4018,PAYLOAD,2022-09-16 19:52:31,15.088344199999998,0.0001629999999999,53.2186,89.7392,50.5727,309.5409,6.2276e-05,7.03e-06,0.0,0 STARLINK-4018,1 52697U 22053AT  22259.82813729  .00000703  00000-0  62276-4 0  9998,2 52697  53.2186  89.7392 0001630  50.5727 309.5409 15.08834420 19386,6917.897,95.438,540.89,538.635,0.0
52697.0,STARLINK-4018,PAYLOAD,2022-09-17 11:46:23,15.08830311,0.0001636999999999,53.219,86.7661,48.9269,311.1865,-1.9284e-05,-5.95e-06,0.0,0 STARLINK-4018,1 52697U 22053AT  22260.49054600 -.00000595  00000-0 -19284-4 0  9990,2 52697  53.2190  86.7661 0001637  48.9269 311.1865 15.08830311 19072,6917.91,95.438,540.9069999999998,538.643,0.0
52697.0,STARLINK-4018,PAYLOAD,2022-09-17 18:07:55,15.08834018,0.0001662,53.219,85.5769,50.6542,309.4598,2.2163e-05,6.5e-07,0.0,0 STARLINK-4018,1 52697U 22053AT  22260.75550317  .00000065  00000-0  22163-4 0  9995,2 52697  53.2190  85.5769 0001662  50.6542 309.4598 15.08834018 19521,6917.899,95.438,540.913,538.614,0.0
52697.0,STARLINK-4018,PAYLOAD,2022-09-18 11:37:09,15.08843009,0.0001709,53.219,82.3059,51.7771,308.3375,3.2174e-05,2.24e-06,0.0,0 STARLINK-4018,1 52697U 22053AT  22261.48413808  .00000224  00000-0  32174-4 0  9999,2 52697  53.2190  82.3059 0001709  51.7771 308.3375 15.08843009 19639,6917.871,95.437,540.918,538.554,0.0
52697.0,STARLINK-4018,PAYLOAD,2022-09-18 19:34:05,15.08834686,0.0001717,53.219,80.8191,51.1981,308.9165,-3.9475e-05,-9.16e-06,0.0,0 STARLINK-4018,1 52697U 22053AT  22261.81534647 -.00000916  00000-0 -39475-4 0  9992,2 52697  53.2190  80.8191 0001717  51.1981 308.9165 15.08834686 19684,6917.897,95.438,540.9490000000002,538.5740000000002,0.0
52697.0,STARLINK-4018,PAYLOAD,2022-09-19 11:27:57,15.08835723,0.0001679,53.2191,77.8451,54.5277,305.5872,4.8818e-05,4.89e-06,0.0,0 STARLINK-4018,1 52697U 22053AT  22262.47774442  .00000489  00000-0  48818-4 0  9998,2 52697  53.2191  77.8451 0001679  54.5277 305.5872 15.08835723 19784,6917.893,95.438,540.92,538.597,0.0
52697.0,STARLINK-4018,PAYLOAD,2022-09-19 14:38:43,15.08846842,0.0001793,53.219,77.2504,52.6972,307.4183,-3.8651e-05,-9.03e-06,0.0,0 STARLINK-4018,1 52697U 22053AT  22262.61022041 -.00000903  00000-0 -38651-4 0  9992,2 52697  53.2190  77.2504 0001793  52.6972 307.4183 15.08846842 19807,6917.859,95.437,540.965,538.484,0.0
52697.0,STARLINK-4018,PAYLOAD,2022-09-20 11:18:43,15.08853156,0.0001691,53.219,73.3846,52.9347,307.1799,-0.00012172,-2.225e-05,0.0,0 STARLINK-4018,1 52697U 22053AT  22263.47133866 -.00002225  00000-0 -12172-3 0  9993,2 52697  53.2190  73.3846 0001691  52.9347 307.1799 15.08853156 19939,6917.84,95.437,540.875,538.535,0.0
52697.0,STARLINK-4018,PAYLOAD,2022-09-20 14:29:30,15.08847413,0.0001633,53.219,72.7895,53.8793,306.235,-0.00011193,-2.069e-05,0.0,0 STARLINK-4018,1 52697U 22053AT  22263.60382096 -.00002069  00000-0 -11193-3 0  9997,2 52697  53.2190  72.7895 0001633  53.8793 306.2350 15.08847413 19951,6917.858,95.437,540.852,538.5930000000002,0.0
52697.0,STARLINK-4018,PAYLOAD,2022-09-21 06:23:22,15.08832085,0.0001696999999999,53.2189,69.8167,53.4812,306.6336,-2.671e-05,-7.13e-06,0.0,0 STARLINK-4018,1 52697U 22053AT  22264.26622983 -.00000713  00000-0 -26710-4 0  9998,2 52697  53.2189  69.8167 0001697  53.4812 306.6336 15.08832085 19649,6917.905,95.438,540.944,538.596,0.0
52697.0,STARLINK-4018,PAYLOAD,2022-09-21 17:31:04,15.08838614,0.0001588,53.22,67.737,35.8479,324.2619,-0.00031294,-5.265e-05,0.0,0 STARLINK-4018,1 52697U 22053AT  22264.72991742 -.00005265  00000-0 -31294-3 0  9990,2 52697  53.2200  67.7370 0001588  35.8479 324.2619 15.08838614 20127,6917.885,95.438,540.8480000000002,538.651,0.0
52697.0,STARLINK-4018,PAYLOAD,2022-09-22 12:35:42,15.08825085,0.0001704,53.2189,64.1679,50.0032,310.1109,-4.9854000000000014e-06,-3.67e-06,0.0,0 STARLINK-4018,1 52697U 22053AT  22265.52480226 -.00000367  00000-0 -49854-5 0  9990,2 52697  53.2189  64.1679 0001704  50.0032 310.1109 15.08825085 19832,6917.926,95.438,540.97,538.612,0.0
52697.0,STARLINK-4018,PAYLOAD,2022-09-22 17:21:52,15.08829279,0.0001605,53.2194,63.2759,46.1739,313.9385,1.0904e-05,-1.15e-06,0.0,0 STARLINK-4018,1 52697U 22053AT  22265.72352054 -.00000115  00000-0  10904-4 0  9992,2 52697  53.2194  63.2759 0001605  46.1739 313.9385 15.08829279 20273,6917.913000000001,95.438,540.888,538.668,0.0
52697.0,STARLINK-4018,PAYLOAD,2022-09-23 06:04:57,15.08827345,0.0001601,53.2198,60.8967,43.2536,316.8582,0.00013262,1.823e-05,0.0,0 STARLINK-4018,1 52697U 22053AT  22266.25343980  .00001823  00000-0  13262-3 0  9994,2 52697  53.2198  60.8967 0001601  43.2536 316.8582 15.08827345 19945,6917.919,95.438,540.8919999999998,538.677,0.0
52697.0,STARLINK-4018,PAYLOAD,2022-09-23 12:26:30,15.08824988,0.0001613,53.22,59.7074,42.6084,317.5033,0.00010158,1.328e-05,0.0,0 STARLINK-4018,1 52697U 22053AT  22266.51840464  .00001328  00000-0  10158-3 0  9993,2 52697  53.2200  59.7074 0001613  42.6084 317.5033 15.08824988 20399,6917.926,95.439,540.9069999999998,538.675,0.0
52697.0,STARLINK-4018,PAYLOAD,2022-09-23 17:12:40,15.08814763,0.0001595999999999,53.2198,58.8155,40.8753,319.2358,1.4175e-05,-6.2e-07,0.0,0 STARLINK-4018,1 52697U 22053AT  22266.71713634 -.00000062  00000-0  14175-4 0  9992,2 52697  53.2198  58.8155 0001596  40.8753 319.2358 15.08814763 20421,6917.958000000001,95.439,540.927,538.7180000000002,0.0
52697.0,STARLINK-4018,PAYLOAD,2022-09-24 13:52:41,15.08830882,0.0001654,53.22,54.9496,41.0653,319.0464,3.8131e-05,3.19e-06,0.0,0 STARLINK-4018,1 52697U 22053AT  22267.57825369  .00000319  00000-0  38131-4 0  9998,2 52697  53.2200  54.9496 0001654  41.0653 319.0464 15.08830882 20557,6917.908,95.438,540.9169999999998,538.629,0.0
52697.0,STARLINK-4018,PAYLOAD,2022-09-24 17:03:27,15.08832686,0.0001646,53.2198,54.3551,41.7228,318.3889,5.1545e-05,5.32e-06,0.0,0 STARLINK-4018,1 52697U 22053AT  22267.71073284  .00000532  00000-0  51545-4 0  9996,2 52697  53.2198  54.3551 0001646  41.7228 318.3889 15.08832686 20574,6917.903,95.438,540.906,538.629,0.0
52697.0,STARLINK-4018,PAYLOAD,2022-09-25 05:46:31,15.08865933,0.0001669,53.2203,51.9758,33.9951,326.1148,-0.00015447,-2.747e-05,0.0,0 STARLINK-4018,1 52697U 22053AT  22268.24064170 -.00002747  00000-0 -15447-3 0  9991,2 52697  53.2203  51.9758 0001669  33.9951 326.1148 15.08865933 20244,6917.801,95.436,540.821,538.512,0.0
52697.0,STARLINK-4018,PAYLOAD,2022-09-25 12:08:04,15.08853101,0.0001659,53.2203,50.7865,37.7235,322.3874,-0.00015928,-2.823e-05,0.0,0 STARLINK-4018,1 52697U 22053AT  22268.50560681 -.00002823  00000-0 -15928-3 0  9997,2 52697  53.2203  50.7865 0001659  37.7235 322.3874 15.08853101 20693,6917.84,95.437,540.8530000000002,538.558,0.0
52697.0,STARLINK-4018,PAYLOAD,2022-09-25 16:54:14,15.08831546,0.0001679,53.2202,49.8946,49.8015,310.3123,0.00012232,1.659e-05,0.0,0 STARLINK-4018,1 52697U 22053AT  22268.70433153  .00001659  00000-0  12232-3 0  9991,2 52697  53.2202  49.8946 0001679  49.8015 310.3123 15.08831546 20315,6917.906,95.438,540.933,538.61,0.0
52697.0,STARLINK-4018,PAYLOAD,2022-09-26 04:01:55,15.08840303,0.0001727,53.2203,47.8133,40.7156,319.3965,0.00011428,1.531e-05,0.0,0 STARLINK-4018,1 52697U 22053AT  22269.16800610  .00001531  00000-0  11428-3 0  9993,2 52697  53.2203  47.8133 0001727  40.7156 319.3965 15.08840303 20383,6917.879,95.438,540.939,538.55,0.0
